[
    {
        "Altitude(m)": 605470.7871531356,
        "Argument of Periapsis(deg)": 0.0,
        "Eccentricity": 0.0,
        "Inclination(deg)": 60.0,
        "Latitude(deg)": 27.98819690939812,
        "Longitude(deg)": 147.26298422097813,
        "Mean Anomaly(deg)": 147.2727,
        "RAAN(deg)": 85.00000000000001,
        "Satellite Name": "Test1 383",
        "Satellite Number": 383,
        "Semi-Major Axis(m)": 6980739.136638005,
        "Time(s)": 0
    },
    {
        "Altitude(m)": 605395.824939183,
        "Argument of Periapsis(deg)": 0.00010418945913296404,
        "Eccentricity": 0.0,
        "Inclination(deg)": 60.0,
        "Latitude(deg)": 27.473887169916438,
        "Longitude(deg)": 147.61617116782972,
        "Mean Anomaly(deg)": 147.89280614546186,
        "RAAN(deg)": 84.99957995086027,
        "Satellite Name": "Test1 383",
        "Satellite Number": 383,
        "Semi-Major Axis(m)": 6980739.136638005,
        "Time(s)": 10
    }
]